[{"OBJECT_NAME":"TEVEL2-3","OBJECT_ID":"2025-052J","EPOCH":"2026-03-07T03:51:20.425248","MEAN_MOTION":15.30247213,"ECCENTRICITY":0.0004636,"INCLINATION":97.3999,"RA_OF_ASC_NODE":322.3017,"ARG_OF_PERICENTER":111.0271,"MEAN_ANOMALY":249.1466,"EPHEMERIS_TYPE":0,"CLASSIFICATION_TYPE":"U","NORAD_CAT_ID":63218,"ELEMENT_SET_NO":999,"REV_AT_EPOCH":5447,"BSTAR":0.00072649,"MEAN_MOTION_DOT":0.00021225,"MEAN_MOTION_DDOT":0},{"OBJECT_NAME":"TEVEL2-2","OBJECT_ID":"2025-052K","EPOCH":"2026-03-07T03:55:41.947680","MEAN_MOTION":15.30213943,"ECCENTRICITY":0.0004611,"INCLINATION":97.3996,"RA_OF_ASC_NODE":322.2942,"ARG_OF_PERICENTER":111.1029,"MEAN_ANOMALY":249.0705,"EPHEMERIS_TYPE":0,"CLASSIFICATION_TYPE":"U","NORAD_CAT_ID":63219,"ELEMENT_SET_NO":999,"REV_AT_EPOCH":5447,"BSTAR":0.00072276,"MEAN_MOTION_DOT":0.00021093,"MEAN_MOTION_DDOT":0},{"OBJECT_NAME":"TEVEL2-9","OBJECT_ID":"2025-052AD","EPOCH":"2026-03-06T11:52:13.141056","MEAN_MOTION":15.28481758,"ECCENTRICITY":0.00078579,"INCLINATION":97.4059,"RA_OF_ASC_NODE":321.2033,"ARG_OF_PERICENTER":133.8146,"MEAN_ANOMALY":226.3745,"EPHEMERIS_TYPE":0,"CLASSIFICATION_TYPE":"U","NORAD_CAT_ID":63237,"ELEMENT_SET_NO":999,"REV_AT_EPOCH":5432,"BSTAR":0.00074940936,"MEAN_MOTION_DOT":0.00020752,"MEAN_MOTION_DDOT":0},{"OBJECT_NAME":"TEVEL2-7","OBJECT_ID":"2025-052AE","EPOCH":"2026-03-07T04:09:24.860160","MEAN_MOTION":15.28296053,"ECCENTRICITY":0.0007918,"INCLINATION":97.4055,"RA_OF_ASC_NODE":321.8312,"ARG_OF_PERICENTER":131.2371,"MEAN_ANOMALY":228.9552,"EPHEMERIS_TYPE":0,"CLASSIFICATION_TYPE":"U","NORAD_CAT_ID":63238,"ELEMENT_SET_NO":999,"REV_AT_EPOCH":5442,"BSTAR":0.00071326,"MEAN_MOTION_DOT":0.00019633,"MEAN_MOTION_DDOT":0},{"OBJECT_NAME":"TEVEL2-8","OBJECT_ID":"2025-052AF","EPOCH":"2026-03-07T04:19:28.459200","MEAN_MOTION":15.28273427,"ECCENTRICITY":0.0007897,"INCLINATION":97.4056,"RA_OF_ASC_NODE":321.8187,"ARG_OF_PERICENTER":132.4008,"MEAN_ANOMALY":227.7901,"EPHEMERIS_TYPE":0,"CLASSIFICATION_TYPE":"U","NORAD_CAT_ID":63239,"ELEMENT_SET_NO":999,"REV_AT_EPOCH":5442,"BSTAR":0.00072542,"MEAN_MOTION_DOT":0.00019956,"MEAN_MOTION_DDOT":0},{"OBJECT_NAME":"HADES-ICM","OBJECT_ID":"2025-052BN","EPOCH":"2026-03-06T14:40:39.923616","MEAN_MOTION":15.55831658,"ECCENTRICITY":0.00087935,"INCLINATION":97.395,"RA_OF_ASC_NODE":325.9491,"ARG_OF_PERICENTER":116.9998,"MEAN_ANOMALY":243.2156,"EPHEMERIS_TYPE":0,"CLASSIFICATION_TYPE":"U","NORAD_CAT_ID":63492,"ELEMENT_SET_NO":999,"REV_AT_EPOCH":5466,"BSTAR":0.0023163562,"MEAN_MOTION_DOT":0.00163262,"MEAN_MOTION_DDOT":0},{"OBJECT_NAME":"INNOSAT 16 (RS92S7)","OBJECT_ID":"2025-155C","EPOCH":"2026-03-07T03:44:55.075200","MEAN_MOTION":15.24130462,"ECCENTRICITY":0.0010681,"INCLINATION":97.4466,"RA_OF_ASC_NODE":33.7715,"ARG_OF_PERICENTER":173.9953,"MEAN_ANOMALY":186.1414,"EPHEMERIS_TYPE":0,"CLASSIFICATION_TYPE":"U","NORAD_CAT_ID":64878,"ELEMENT_SET_NO":999,"REV_AT_EPOCH":6512,"BSTAR":0.00036303,"MEAN_MOTION_DOT":8.772e-5,"MEAN_MOTION_DDOT":0},{"OBJECT_NAME":"GEOSCAN 6 (RS92S6)","OBJECT_ID":"2025-155D","EPOCH":"2026-03-07T03:51:50.228928","MEAN_MOTION":15.27891869,"ECCENTRICITY":0.0008416,"INCLINATION":97.4465,"RA_OF_ASC_NODE":34.5453,"ARG_OF_PERICENTER":162.4837,"MEAN_ANOMALY":197.6694,"EPHEMERIS_TYPE":0,"CLASSIFICATION_TYPE":"U","NORAD_CAT_ID":64879,"ELEMENT_SET_NO":999,"REV_AT_EPOCH":6517,"BSTAR":0.00052886,"MEAN_MOTION_DOT":0.00014351,"MEAN_MOTION_DDOT":0},{"OBJECT_NAME":"GEOSCAN 1 (RS92S1)","OBJECT_ID":"2025-155E","EPOCH":"2026-03-07T03:10:05.689920","MEAN_MOTION":15.28308653,"ECCENTRICITY":0.0008286,"INCLINATION":97.4463,"RA_OF_ASC_NODE":34.5887,"ARG_OF_PERICENTER":162.5734,"MEAN_ANOMALY":197.5791,"EPHEMERIS_TYPE":0,"CLASSIFICATION_TYPE":"U","NORAD_CAT_ID":64880,"ELEMENT_SET_NO":999,"REV_AT_EPOCH":6517,"BSTAR":0.0006029,"MEAN_MOTION_DOT":0.00016584,"MEAN_MOTION_DDOT":0},{"OBJECT_NAME":"239ALFEROV (RS61S)","OBJECT_ID":"2025-155F","EPOCH":"2026-03-07T03:50:44.239200","MEAN_MOTION":15.29805777,"ECCENTRICITY":0.0008054,"INCLINATION":97.4468,"RA_OF_ASC_NODE":34.8846,"ARG_OF_PERICENTER":160.0539,"MEAN_ANOMALY":200.1018,"EPHEMERIS_TYPE":0,"CLASSIFICATION_TYPE":"U","NORAD_CAT_ID":64881,"ELEMENT_SET_NO":999,"REV_AT_EPOCH":6519,"BSTAR":0.00071655,"MEAN_MOTION_DOT":0.00020661,"MEAN_MOTION_DDOT":0},{"OBJECT_NAME":"GEOSCAN 2 (RS92S2)","OBJECT_ID":"2025-155Q","EPOCH":"2026-03-07T03:28:36.410304","MEAN_MOTION":15.28609485,"ECCENTRICITY":0.0008191,"INCLINATION":97.4461,"RA_OF_ASC_NODE":34.7111,"ARG_OF_PERICENTER":149.3684,"MEAN_ANOMALY":210.8035,"EPHEMERIS_TYPE":0,"CLASSIFICATION_TYPE":"U","NORAD_CAT_ID":64890,"ELEMENT_SET_NO":999,"REV_AT_EPOCH":6518,"BSTAR":0.00057328,"MEAN_MOTION_DOT":0.0001591,"MEAN_MOTION_DDOT":0},{"OBJECT_NAME":"GEOSCAN 5 (RS92S5)","OBJECT_ID":"2025-155R","EPOCH":"2026-03-07T04:06:09.608256","MEAN_MOTION":15.30137947,"ECCENTRICITY":0.0006646,"INCLINATION":97.4461,"RA_OF_ASC_NODE":34.9925,"ARG_OF_PERICENTER":162.6782,"MEAN_ANOMALY":197.4687,"EPHEMERIS_TYPE":0,"CLASSIFICATION_TYPE":"U","NORAD_CAT_ID":64891,"ELEMENT_SET_NO":999,"REV_AT_EPOCH":6520,"BSTAR":0.00068918,"MEAN_MOTION_DOT":0.00020066,"MEAN_MOTION_DDOT":0},{"OBJECT_NAME":"GEOSCAN 4 (RS92S4)","OBJECT_ID":"2025-155S","EPOCH":"2026-03-07T03:55:26.185728","MEAN_MOTION":15.30242124,"ECCENTRICITY":0.0006716,"INCLINATION":97.4465,"RA_OF_ASC_NODE":35.0089,"ARG_OF_PERICENTER":163.1788,"MEAN_ANOMALY":196.9677,"EPHEMERIS_TYPE":0,"CLASSIFICATION_TYPE":"U","NORAD_CAT_ID":64892,"ELEMENT_SET_NO":999,"REV_AT_EPOCH":6520,"BSTAR":0.00070006,"MEAN_MOTION_DOT":0.00020451,"MEAN_MOTION_DDOT":0},{"OBJECT_NAME":"GEOSCAN 3 (RS92S3)","OBJECT_ID":"2025-155T","EPOCH":"2026-03-07T03:26:47.796000","MEAN_MOTION":15.31541053,"ECCENTRICITY":0.0006359,"INCLINATION":97.4456,"RA_OF_ASC_NODE":35.175,"ARG_OF_PERICENTER":162.9036,"MEAN_ANOMALY":197.2421,"EPHEMERIS_TYPE":0,"CLASSIFICATION_TYPE":"U","NORAD_CAT_ID":64893,"ELEMENT_SET_NO":999,"REV_AT_EPOCH":6521,"BSTAR":0.00083128,"MEAN_MOTION_DOT":0.00025311,"MEAN_MOTION_DDOT":0},{"OBJECT_NAME":"INNOSAT 3 (RS92S0)","OBJECT_ID":"2025-155U","EPOCH":"2026-03-07T02:52:15.351168","MEAN_MOTION":15.36442381,"ECCENTRICITY":0.0006061,"INCLINATION":97.4427,"RA_OF_ASC_NODE":35.7819,"ARG_OF_PERICENTER":153.7791,"MEAN_ANOMALY":206.3761,"EPHEMERIS_TYPE":0,"CLASSIFICATION_TYPE":"U","NORAD_CAT_ID":64894,"ELEMENT_SET_NO":999,"REV_AT_EPOCH":6525,"BSTAR":0.0012464,"MEAN_MOTION_DOT":0.00044458,"MEAN_MOTION_DDOT":0}]
