TEVEL2-3                
1 63218U 25052J   26066.16065307  .00021225  00000+0  72649-3 0  9994
2 63218  97.3999 322.3017 0004636 111.0271 249.1466 15.30247213 54478
TEVEL2-2                
1 63219U 25052K   26066.16367995  .00021093  00000+0  72276-3 0  9992
2 63219  97.3996 322.2942 0004611 111.1029 249.0705 15.30213943 54475
TEVEL2-9                
1 63237U 25052AD  26065.49459654  .00020752  00000+0  74941-3 0  9993
2 63237  97.4059 321.2033 0007857 133.8146 226.3745 15.28481758 54326
TEVEL2-7                
1 63238U 25052AE  26066.17320440  .00019633  00000+0  71326-3 0  9990
2 63238  97.4055 321.8312 0007918 131.2371 228.9552 15.28296053 54426
TEVEL2-8                
1 63239U 25052AF  26066.18019050  .00019956  00000+0  72542-3 0  9993
2 63239  97.4056 321.8187 0007897 132.4008 227.7901 15.28273427 54429
HADES-ICM               
1 63492U 25052BN  26065.61157319  .00163262  00000+0  23164-2 0  9997
2 63492  97.3950 325.9491 0008793 116.9998 243.2156 15.55831658 54663
INNOSAT 16 (RS92S7)     
1 64878U 25155C   26066.15619300  .00008772  00000+0  36303-3 0  9997
2 64878  97.4466  33.7715 0010681 173.9953 186.1414 15.24130462 65127
GEOSCAN 6 (RS92S6)      
1 64879U 25155D   26066.16099802  .00014351  00000+0  52886-3 0  9992
2 64879  97.4465  34.5453 0008416 162.4837 197.6694 15.27891869 65172
GEOSCAN 1 (RS92S1)      
1 64880U 25155E   26066.13201030  .00016584  00000+0  60290-3 0  9997
2 64880  97.4463  34.5887 0008286 162.5734 197.5791 15.28308653 65177
239ALFEROV (RS61S)      
1 64881U 25155F   26066.16023425  .00020661  00000+0  71655-3 0  9999
2 64881  97.4468  34.8846 0008054 160.0539 200.1018 15.29805777 65195
GEOSCAN 2 (RS92S2)      
1 64890U 25155Q   26066.14486586  .00015910  00000+0  57328-3 0  9990
2 64890  97.4461  34.7111 0008191 149.3684 210.8035 15.28609485 65188
GEOSCAN 5 (RS92S5)      
1 64891U 25155R   26066.17094454  .00020066  00000+0  68918-3 0  9998
2 64891  97.4461  34.9925 0006646 162.6782 197.4687 15.30137947 65202
GEOSCAN 4 (RS92S4)      
1 64892U 25155S   26066.16349752  .00020451  00000+0  70006-3 0  9991
2 64892  97.4465  35.0089 0006716 163.1788 196.9677 15.30242124 65207
GEOSCAN 3 (RS92S3)      
1 64893U 25155T   26066.14360875  .00025311  00000+0  83128-3 0  9998
2 64893  97.4456  35.1750 0006359 162.9036 197.2421 15.31541053 65216
INNOSAT 3 (RS92S0)      
1 64894U 25155U   26066.11962212  .00044458  00000+0  12464-2 0  9996
2 64894  97.4427  35.7819 0006061 153.7791 206.3761 15.36442381 65255
